name,address,city,phone
HENDY REDHILL - Parts Only,BRIGHTON ROAD,"REDHILL, RH1 1SJ",01737 768831
ARNOLD CLARK AUTOMOBILES LTD,DELPHWOOD DRIVE,"ST HELENS, WA9 5JE",01744 457000
HENDY SEGENSWORTH - Parts Only,HENDY PARTS DISTRIBUTION CENTRE,"FAREHAM, PO15 5SD",02380 483100
SUTTON PARK MOTOR COMPANY LIMITED,390 COLLEGE ROAD,"BIRMINGHAM, B44 0HH",0121 272 9370
EVANS HALSHAW,WHITE ROSE WAY,"DONCASTER, DN4 5JH",01302 363311
TOOMEY,ROCHFORD BUSINESS PARK,"ROCHFORD, SS4 1GP",01702 563100
HENDY TUNBRIDGE WELLS,LANGTON ROAD,"TUNBRIDGE WELLS, TN4 8XH",01892 539466
RENAULT ENFIELD,9 CROWN ROAD,"ENFIELD, EN1 1TX",0203 199 0232
STONEACRE CHESTERFIELD,UNIT 9 BRIMINGTON ROAD NORTH,"CHESTERFIELD, S41 9AJ",01246 383911
ARNOLD CLARK AUTOMOBILES LTD,HARBOUR ROAD,"INVERNESS, IV1 1LN",01463 222848
DONNELLY & TAGGART EGLINGTON,COURTAULD WAY,"LONDONDERRY, BT47 3DN",02871 812132
THEOCO,498 CHURCH LANE,"LONDON, NW9 8UA",020 8205 5155
WILSONS EPSOM SERVICE CENTRE,2 WESTON ROAD,"EPSOM, KT17 1JG",0203 846 3335
RENAULT WATFORD,3 GREENHILL CRESCENT,"WATFORD, WD188JG",01923 531903
VOSPERS,9 VALLEY ROAD,"PLYMOUTH, PL7 1RF",01752 208645
ARNOLD CLARK AUTOMOBILES LTD,GEMINI RETAIL PARK,"WARRINGTON, WA5 7TY",01925 575885
ARNOLD CLARK AUTOMOBILES LTD,2 LINKWOOD PLACE,"ELGIN, IV30 1HZ",01343 548383
CLARK COMMERCIALS VAN SERVICE CENTRE,30 WELLHEADS DRIVE,"ABERDEEN, AB21 7GQ",01224 725412
SPECIALIST CARS,ABBOTSWELL ROAD,"ABERDEEN, AB12 3AD",01224 677800
A.K.S. (YEOVIL) LIMITED,ADDLEWELL LANE,"YEOVIL, BA20 1RY",01935 426048
MITCHELLS GREAT YARMOUTH,SUFFOLK ROAD,"GREAT YARMOUTH, NR31 0LN",01493 412140
HAYWARDS OF MEDWAY,356 LUTON ROAD,"CHATHAM, ME4 5BD",01634 819440
HENDY PORTSMOUTH,BILTON WAY,"PORTSMOUTH, PO3 5FH",02392 424000
STARTIN WORCESTER,BATH ROAD,"WORCESTER, WR5 3HR",01905 820777
HARRATTS LIMITED,339 DENBY DALE ROAD,"WAKEFIELD, WF4 3BB",01924 291829
ARNOLD CLARK AUTOMOBILES LTD,DUMBARTON ROAD,"DUMBARTON, G82 2TZ",01389 819654
JDS,HOWLEY PARK ROAD,"LEEDS, LS27 0BN",0113 393 6799
RENAULT LEICESTER,107 ABBEY LANE,"LEICESTER, LE4 5QU",0116 404 0089
BRISTOL STREET MANSFIELD,SOUTHWELL ROAD WEST,"MANSFIELD, NG18 4LW",01623 464656
EVANS HALSHAW,20 ALMA PLACE,"DURHAM, DH1 2HN",0191 332 4600
ARNOLD CLARK AUTOMOBILES LTD,DELPHWOOD DRIVE,"ST HELENS, WA9 5JE",01744 457000
EVANS HALSHAW,WHITE ROSE WAY,"DONCASTER, DN4 5JH",01302 363311
DINNAGES GARAGES LIMITED,22 WIVELSFIELD ROAD,"HAYWARDS HEATH, RH16 4EQ",01444 440116
BRISTO'S LIMITED,345 WOODBRIDGE ROAD,"IPSWICH, IP4 4ET",01473 719221
TOOMEY,SERVICE HOUSE,"BASILDON, SS15 6RW",01268 542626
ARNOLD CLARK AUTOMOBILES LTD,HARBOUR ROAD,"INVERNESS, IV1 1LN",01463 222848
ARNOLD CLARK AUTOMOBILES LTD,GEMINI RETAIL PARK,"WARRINGTON, WA5 7TY",01925 575885
ARNOLD CLARK AUTOMOBILES LTD,2 LINKWOOD PLACE,"ELGIN, IV30 1HZ",01343 548383
RAWLINSON,EASLEA ROAD,"BURY ST. EDMUNDS, IP32 7DF",01284 752999
ARNOLD CLARK AUTOMOBILES LTD,KERSE ROAD,"STIRLING, FK7 7RU",01786 472212
RENAULT LIVERPOOL,SEFTON STREET,"LIVERPOOL, L8 6PZ",0151 790 0093
S J COOK & SONS,STATION ROAD,"BRISTOL, BS15 4XX",0117 957 9700
BRAYLEY MILTON KEYNES,27 BARNSDALE DRIVE,"MILTON KEYNES, MK4 4DD",01908 866200
SUTTONS GARAGE,26 BLACKGATE LANE,"PRESTON, PR4 6US",01772 812288
PLATINUM,6 MERIDIAN MOTOR PARK,"TROWBRIDGE, BA14 0BJ",01225 759525
SUTTON PARK MOTOR COMPANY LIMITED,GAGARIN,"TAMWORTH, B79 7TP",01827 305080
KINEHOLME OF OTLEY,BRADFORD ROAD,"OTLEY, LS213LS",01943 462352
ARNOLD CLARK AUTOMOBILES LTD,KINGSWAY EAST,"DUNDEE, DD4 7HG",01382 461199
MOTORVOGUE KINGS LYNN,SCANIA WAY,"KINGS LYNN, PE30 4LP",01553 772644
BUDGEN MOTORS,FEATHERBED LANE,"SHREWSBURY, SY1 4NL",01743 445 611
G BLACKHURST & SON,SHAKESPEARE WAY,"WHITCHURCH, SY13 1LJ",01948 503012
SUTTON PARK MOTOR COMPANY LIMITED,37 LICHFIELD STREET,"BURTON ON TRENT, DE143RH",01283 740001
RENAULT CROYDON,305 BRIGHTON ROAD,"COULSDON, CR5 3EA",0203 199 0202
SMITHS OF PETERBOROUGH,BRETTON WAY,"PETERBOROUGH, PE3 8YL",01733 330030
BRISTOL STREET EXETER VAN CENTRE,VAN SERVICE CENTRE,"EXETER, EX2 8QQ",01392 422882
ARNOLD CLARK AUTOMOBILES LTD,149 KILBIRNIE STREET,"GLASGOW, G5 8HX",0141 271 7440
GFC ARNOLD CLARK AUTOMOBILES LTD,64 KIRKINTILLOCH ROAD,"GLASGOW, G64 2AH",0141 772 6481
ARNOLD CLARK AUTOMOBILES LTD,64 KIRKINTILLOCH ROAD,"GLASGOW, G64 2AH",0141 772 6481
MOTORLINE,BIRCHOLT ROAD,"MAIDSTONE, ME15 9XY",01622 393828
BENNETT MOTOR GROUP,39-41 BARRACK ROAD,"LEEDS, LS7 4AB",0113 487 7777
HENDY CORFE MULLEN,153-157 WAREHAM ROAD,"WIMBORNE, BH213LB",01202 974041
RICHARD SANDERS LTD,BRUNEL CLOSE,"KETTERING, NN16 9HU",01536 512221
BRISTOL STREET EXETER,14A MARSH BARTON ROAD,"EXETER, EX2 8NT",01392 954370
SERE LIMITED,LISSUE INDUSTRIAL ESTATE WEST,"LISBURN, BT282RE",028 9020 5100
ARNOLD CLARK AUTOMOBILES LTD,AMY JOHNSON WAY,"BLACKPOOL, FY4 2RP",01253 843757
ARNOLD CLARK AUTOMOBILES LTD,DELPHWOOD DRIVE,"ST HELENS, WA9 5JE",01744 457000
EVANS HALSHAW,WHITE ROSE WAY,"DONCASTER, DN4 5JH",01302 363311
ARNOLD CLARK AUTOMOBILES LTD,HARBOUR ROAD,"INVERNESS, IV1 1LN",01463 222848
ARNOLD CLARK AUTOMOBILES LTD,GEMINI RETAIL PARK,"WARRINGTON, WA5 7TY",01925 575885
ARNOLD CLARK AUTOMOBILES LTD,2 LINKWOOD PLACE,"ELGIN, IV30 1HZ",01343 548383
ARNOLD CLARK AUTOMOBILES LTD,KERSE ROAD,"STIRLING, FK7 7RU",01786 472212
SUTTON PARK MOTOR COMPANY LIMITED,GAGARIN,"TAMWORTH, B79 7TP",01827 305080
ARNOLD CLARK AUTOMOBILES LTD,KINGSWAY EAST,"DUNDEE, DD4 7HG",01382 461199
ARNOLD CLARK AUTOMOBILES LTD,149 KILBIRNIE STREET,"GLASGOW, G5 8HX",0141 271 7440
ARNOLD CLARK AUTOMOBILES LTD,64 KIRKINTILLOCH ROAD,"GLASGOW, G64 2AH",0141 772 6481
BRISTOL STREET NOTTINGHAM,HAYDN ROAD,"NOTTINGHAM, NG5 1EA",0115 845 4040
STONEACRE STAFFORD,ASTONFIELDS ROAD,"STAFFORD, ST16 3UF",01785 782701
BRISTOL STREET CHESTERFIELD - Parts Only,1 DISCOVERY WAY,"CHESTERFIELD, S41 9EG",01246 768245
GLYN HOPKIN ST ALBANS,LYON WAY,"ST ALBANS, AL4 0QU",01727 818040
AUTOWORLD,KEYWAY RETAIL PARK,"WILLENHALL, WV132QU",01902 216379
MACKIE MOTORS (BRECHIN) LTD,46-48 CLERK STREET,"BRECHIN, DD9 6AY",01356 624511
MACKIE MOTORS (BRECHIN) LTD,MONTROSE ROAD,"ARBROATH, DD11 5JP",01241 433999
PARK'S,228 HAMILTON ROAD,"MOTHERWELL, ML1 3DT",01698 264 162
ARNOLD CLARK AUTOMOBILES LTD,BEANCROSS ROAD,"GRANGEMOUTH, FK3 8YL",01324 495555
ARNOLD CLARK AUTOMOBILES LTD,RIVERSIDE MOTOR PARK,"PRESTON, PR2 2TY",01772 329900
HENDY EASTBOURNE,20-22 LOTTBRIDGE DROVE,"EASTBOURNE, BN23 6NS",01323 737233
HOLDEN,22 HEIGHAM STREET,"NORWICH, NR2 4TF",01603 628911
CHARLES HURST,62 BOUCHER ROAD,"BELFAST, BT126LR",02895 170100
RENAULT BOLTON,426-438 MANCHESTER ROAD,"BOLTON, BL3 2NU",01204 219382
D S G MORECAMBE,FELLGATE,"MORECAMBE, LA3 3PE",01524 848000
EVANS HALSHAW - Parts Only,UNIT A,"HOUGHTON LE SPRING, DH4 5PH",0191 563 1400
D S G BARROW - SERVICE,1 IRON WORKS ROAD,"BARROW IN FURNESS, LA142PG",01229 824178
RENAULT SOLIHULL,270 STRATFORD ROAD,"SOLIHULL, B90 3AD",0121 418 0134
MOTORVOGUE BEDFORD,RILEY WAY,"BEDFORD, MK42 7GB",01234 861555
MOTORVOGUE CLAPHAM,87 HIGH STREET,"BEDFORD, MK41 6AQ",01234 354257
PARK'S,1 BRAEVIEW PLACE,"GLASGOW, G74 3XH",01355 222 722
CHARLTONS OF BOROUGHBRIDGE LTD,SPA GARAGE,"BOROUGHBRIDGE, YO519HR",01423 322495
HOLDCROFT CREWE,SECOND AVENUE,"CREWE, CW16JS",01270 531000
COUNTY,CONEY AVENUE,"BARNSTAPLE, EX328QJ",01271 349500
EVANS HALSHAW,NEWPORT ROAD,"MIDDLESBROUGH, TS1 5JP",01642 757500
RMB AUTOMOTIVE LTD,CYGNET DRIVE,"STOCKTON-ON-TEES, TS18 3DZ",01642 667735
RENAULT TRADE PARTS CENTRE,KEYWAY RETAIL PARK,"WILLENHALL, WV132QU",0870 600 0882
RENAULT WOLVERHAMPTON,2-24 BILSTON ROAD,"WOLVERHAMPTON, WV2 2PT",01902 439500
MARTINS,LONDON ROAD,"BASINGSTOKE, RG24 7NZ",01256 867000
MARTINS,106 BATH ROAD,"READING, RG30 2EU",01182 142800
ARNOLD CLARK AUTOMOBILES LTD,DELPHWOOD DRIVE,"ST HELENS, WA9 5JE",01744 457000
EVANS HALSHAW,WHITE ROSE WAY,"DONCASTER, DN4 5JH",01302 363311
ARNOLD CLARK AUTOMOBILES LTD,HARBOUR ROAD,"INVERNESS, IV1 1LN",01463 222848
ARNOLD CLARK AUTOMOBILES LTD,GEMINI RETAIL PARK,"WARRINGTON, WA5 7TY",01925 575885
ARNOLD CLARK AUTOMOBILES LTD,2 LINKWOOD PLACE,"ELGIN, IV30 1HZ",01343 548383
ARNOLD CLARK AUTOMOBILES LTD,KERSE ROAD,"STIRLING, FK7 7RU",01786 472212
SUTTON PARK MOTOR COMPANY LIMITED,GAGARIN,"TAMWORTH, B79 7TP",01827 305080
ARNOLD CLARK AUTOMOBILES LTD,KINGSWAY EAST,"DUNDEE, DD4 7HG",01382 461199
ARNOLD CLARK AUTOMOBILES LTD,149 KILBIRNIE STREET,"GLASGOW, G5 8HX",0141 271 7440
ARNOLD CLARK AUTOMOBILES LTD,64 KIRKINTILLOCH ROAD,"GLASGOW, G64 2AH",0141 772 6481
MACKIE MOTORS (BRECHIN) LTD,46-48 CLERK STREET,"BRECHIN, DD9 6AY",01356 624511
PARK'S,228 HAMILTON ROAD,"MOTHERWELL, ML1 3DT",01698 264 162
ARNOLD CLARK AUTOMOBILES LTD,BEANCROSS ROAD,"GRANGEMOUTH, FK3 8YL",01324 495555
MOTORLINE,THE PARADE,"ASHFORD, TN24 0HT",01233 364986
BURY MOTORS,170 ROCHDALE ROAD,"BURY, BL9 7DF",0161 797 3757
LOOKERS PRESTON - Parts Only,MEADOW WORKS,"PRESTON, PR5 8BP",01772 706020
LOOKERS STOCKPORT,111 WELLINGTON ROAD NORTH,"STOCKPORT, SK4 2QH",0161 333 3388
GRIFFIN MILL GARAGES LIMITED,TONTEG ROAD,"PONTYPRIDD, CF375YH",01443 824380
CHARLES HURST,547 ANTRIM ROAD,"NEWTOWNABBEY, BT36 4RF",0844 649 0848
JAYBEE MOTORS,OXFORD ROAD,"BANBURY, OX15 4AB",01295 227100
CHARLES HURST,10 COMBER ROAD,"NEWTOWNARDS, BT23 4QP",08446 499677
SHELBOURNE MOTORS,ARMAGH ROAD,"NEWRY, BT35 6PU",028 308 3900
CITY MOTORS,CASTLE COURT,"BRISTOL, BS4 3AX",0117 972 3030
CITY MOTORS,UNIT D PIONEER PARK,"BRISTOL, BS4 3QB",0117 977 2200
CCR MOTOR CO LTD,UNIT X,"WESTON-SUPER-MARE, BS22 8NA",01934 621200
RENAULT LONDON WEST,WESTERN AVENUE,"LONDON, W3 0RZ",0203 199 0299
RENAULT ROMFORD,GALLOWS CORNER,"ROMFORD, RM3 0EZ",01708 697086
STONEACRE ROTHERHAM,MUSHROOM GARAGE,"ROTHERHAM, S65 2UG",01709 373991
GRAVELLS,PEMBREY ROAD,"KIDWELLY, SA17 4TF",01554 890436
"FISH BROTHERS, SWINDON",PADDINGTON DRIVE,"SWINDON, SN5 7SB",01793 645645
HARWOODS,LUSHINGTON GARAGE,"RYDE, PO33 4RD",01983 885500
ARNOLD CLARK AUTOMOBILES LTD,172 DUNKELD ROAD,"PERTH, PH1 3XJ",01738 620877
ARNOLD CLARK AUTOMOBILES LTD,23C SEAFIELD ROAD EAST,"EDINBURGH, EH151ED",0131 657 8788
PARK'S,HIGH ROAD,"AYR, KA8 0LL",01292 613000
MARTINS,LONDON ROAD,"BASINGSTOKE, RG24 7NZ",01256 867000
RIGHT CAR GRIMSBY,WEST COATES ROAD,"GRIMSBY, DN31 2SU",01472 729729
HARTWELL KIDLINGTON,OXFORD MOTOR PARK,"KIDLINGTON, OX5 1RY",0844 324 8760
RENAULT WIRRAL,474 WOODCHURCH ROAD,"PRENTON, CH430SE",0151 790 0124
MILLERS GARAGES LTD,TREGONIGGIE INDUSTRIAL ESTATE,"FALMOUTH, TR114SN",01326 373825
PARK'S,232 WHIFFLET STREET,"COATBRIDGE, ML5 4RX",01236 441177
MASTERS OF BECKENHAM LTD,BROOKSIDE WORKS,"BECKENHAM, BR3 4LU",0181 650 5046
CLOCK GARAGE (CHORLEY) LTD,LYONS LANE,"CHORLEY, PR7 3BH",01257 268484
T.C. AUTOS,52 KILLYCLOGHER ROAD,"OMAGH, BT797LP",028 8224 3451
HENDY HORLEY,1 BONEHURST ROAD,"REDHILL, RH1 5ED",01293 738840
ARNOLD CLARK AUTOMOBILES LTD,DELPHWOOD DRIVE,"ST HELENS, WA9 5JE",01744 457000
EVANS HALSHAW,WHITE ROSE WAY,"DONCASTER, DN4 5JH",01302 363311
ARNOLD CLARK AUTOMOBILES LTD,HARBOUR ROAD,"INVERNESS, IV1 1LN",01463 222848
ARNOLD CLARK AUTOMOBILES LTD,GEMINI RETAIL PARK,"WARRINGTON, WA5 7TY",01925 575885
ARNOLD CLARK AUTOMOBILES LTD,2 LINKWOOD PLACE,"ELGIN, IV30 1HZ",01343 548383
ARNOLD CLARK AUTOMOBILES LTD,KERSE ROAD,"STIRLING, FK7 7RU",01786 472212
SUTTON PARK MOTOR COMPANY LIMITED,GAGARIN,"TAMWORTH, B79 7TP",01827 305080
ARNOLD CLARK AUTOMOBILES LTD,KINGSWAY EAST,"DUNDEE, DD4 7HG",01382 461199
ARNOLD CLARK AUTOMOBILES LTD,149 KILBIRNIE STREET,"GLASGOW, G5 8HX",0141 271 7440
ARNOLD CLARK AUTOMOBILES LTD,64 KIRKINTILLOCH ROAD,"GLASGOW, G64 2AH",0141 772 6481
MACKIE MOTORS (BRECHIN) LTD,46-48 CLERK STREET,"BRECHIN, DD9 6AY",01356 624511
PARK'S,228 HAMILTON ROAD,"MOTHERWELL, ML1 3DT",01698 264 162
ARNOLD CLARK AUTOMOBILES LTD,BEANCROSS ROAD,"GRANGEMOUTH, FK3 8YL",01324 495555
DRAKES GARAGE LIMITED,YORK ROAD,"YORK, YO43 3PH",01430 871000
MADELEY HEATH MOTORS,KEELE ROAD,"NEWCASTLE-UNDER-LYME, ST5 5AL",01782 750959
MARTINS,EASTON LANE,"WINCHESTER, SO237SL",01962 810000
BALDOCKS,DITCHLING ROAD,"HAYWARDS HEATH, RH17 7RF",01444 471521
BRISTOL STREET DERBY,SIR FRANK WHITTLE ROAD,"DERBY, DE21 4RX",01332 484525
DONALD CAMPBELL MOTORS LIMITED,UPPER COLL,"ISLE OF LEWIS, HS2 0LS",01851 820292
MEMSIE GARAGE LIMITED,MEMSIE,"FRASERBURGH, AB43 7AN",01346 541221
TAYLORS SERVICE CENTRES,CHELMSFORD ROAD INDUSTRIAL ESTATE,"GREAT DUNMOW, CM6 1XG",01371 876422
MOTORLINE,WESTMINSTER ROAD,"CANTERBURY, CT1 1YY",01227 213941
CHARLES HURST,547 ANTRIM ROAD,"NEWTOWNABBEY, BT36 4RF",0844 649 0848
CITY MOTORS,CASTLE COURT,"BRISTOL, BS4 3AX",0117 972 3030
ARNOLD CLARK AUTOMOBILES LTD,172 DUNKELD ROAD,"PERTH, PH1 3XJ",01738 620877
PARK'S,HIGH ROAD,"AYR, KA8 0LL",01292 613000
MARTINS,LONDON ROAD,"BASINGSTOKE, RG24 7NZ",01256 867000
STONEACRE DONCASTER - Parts Only,UNIT 1 YORK ROAD,"DONCASTER, DN5 8TW",01302 517451
WILSONS EPSOM,NONSUCH BUSINESS PARK,"EPSOM, KT171DH",0203 846 3335
S.M.C.,168-170 OATLANDS DRIVE,"WEYBRIDGE, KT13 9ET",01932 855021
VOSPERS,MARSH MILLS RETAIL PARK,"PLYMOUTH, PL6 8AY",01752 636399
S.M.C.,WYCH HILL,"WOKING, GU22 0EU",01483 720322
S.M.C.,ASH ROAD,"ALDERSHOT, GU124HD",01252 367300
DONNELLY & TAGGART BALLYMENA,120 ANTRIM ROAD,"BALLYMENA, BT422HD",02825 649833
SUTTON PARK MOTOR COMPANY LIMITED,318 HOLBROOK LANE,"COVENTRY, CV6 4DG",02476 857132
BUDGEN MOTORS,STAFFORD PARK 1,"TELFORD, TF3 3BD",01952 947 444
MITCHELLS LOWESTOFT,50-58 LONG ROAD,"LOWESTOFT, NR33 9DQ",01502 500950
LEYSHON FLINT AND SONS,PEN-Y-FAI SERVICE STATION,"BRIDGEND, CF31 4LL",01656 649700
GLYN HOPKIN CHELMSFORD,6 BILTON ROAD,"CHELMSFORD, CM1 2UP",01245 768235
PENTAGON LOUGHBOROUGH,52 BELTON ROAD,"LOUGHBOROUGH, LE11 1NE",01509 860227
HARRATTS LIMITED,FRONT STREET,"PONTEFRACT, WF8 4DB",01977 700000
RENAULT CARDIFF,295 PENARTH ROAD,"CARDIFF, CF118UU",029 2148 0089
RICHARD SANDERS LIMITED,CLIFTONVILLE ROAD,"NORTHAMPTON, NN1 5BU",01604 235010
BROWN BROTHERS,EDINBURGH ROAD,"PEEBLES, EH458DF",01721 722000
O C DAVIES A'R MAB,MODURON PENPARC MOTORS,"CARDIGAN, SA43 1SB",01239 621757
RENAULT SWANSEA,FENDROD WAY,"SWANSEA, SA7 9DG",01792 692964
CALLOW MARSH,ROSS ROAD,"HEREFORD, HR2 8BT",01432 842000
FIVE ACRES,LOWER LANE,"COLEFORD, GL16 7QN",01594 839929
ARNOLD CLARK AUTOMOBILES LTD,DELPHWOOD DRIVE,"ST HELENS, WA9 5JE",01744 457000
EVANS HALSHAW,WHITE ROSE WAY,"DONCASTER, DN4 5JH",01302 363311
ARNOLD CLARK AUTOMOBILES LTD,HARBOUR ROAD,"INVERNESS, IV1 1LN",01463 222848
ARNOLD CLARK AUTOMOBILES LTD,GEMINI RETAIL PARK,"WARRINGTON, WA5 7TY",01925 575885
ARNOLD CLARK AUTOMOBILES LTD,2 LINKWOOD PLACE,"ELGIN, IV30 1HZ",01343 548383
ARNOLD CLARK AUTOMOBILES LTD,KERSE ROAD,"STIRLING, FK7 7RU",01786 472212
SUTTON PARK MOTOR COMPANY LIMITED,GAGARIN,"TAMWORTH, B79 7TP",01827 305080
ARNOLD CLARK AUTOMOBILES LTD,KINGSWAY EAST,"DUNDEE, DD4 7HG",01382 461199
ARNOLD CLARK AUTOMOBILES LTD,149 KILBIRNIE STREET,"GLASGOW, G5 8HX",0141 271 7440
ARNOLD CLARK AUTOMOBILES LTD,64 KIRKINTILLOCH ROAD,"GLASGOW, G64 2AH",0141 772 6481
MACKIE MOTORS (BRECHIN) LTD,46-48 CLERK STREET,"BRECHIN, DD9 6AY",01356 624511
PARK'S,228 HAMILTON ROAD,"MOTHERWELL, ML1 3DT",01698 264 162
ARNOLD CLARK AUTOMOBILES LTD,BEANCROSS ROAD,"GRANGEMOUTH, FK3 8YL",01324 495555
CHARLES HURST,547 ANTRIM ROAD,"NEWTOWNABBEY, BT36 4RF",0844 649 0848
CITY MOTORS,CASTLE COURT,"BRISTOL, BS4 3AX",0117 972 3030
ARNOLD CLARK AUTOMOBILES LTD,172 DUNKELD ROAD,"PERTH, PH1 3XJ",01738 620877
PARK'S,HIGH ROAD,"AYR, KA8 0LL",01292 613000
MARTINS,LONDON ROAD,"BASINGSTOKE, RG24 7NZ",01256 867000
S.M.C.,168-170 OATLANDS DRIVE,"WEYBRIDGE, KT13 9ET",01932 855021
S.M.C.,WYCH HILL,"WOKING, GU22 0EU",01483 720322
MASTERS OF BECKENHAM LTD,150 UPPER ELMERS END ROAD,"BECKENHAM, BR3 3DZ",0208 650 9151
PERRYS MOTOR SALES LTD,GRIFFIN LANE,"AYLESBURY, HP198BY",01296 832981
RENAULT ORPINGTON,1 CROFTON ROAD,"ORPINGTON, BR6 8AB",01689 242146
LOOKERS NEWCASTLE - Parts Only,PORTLAND ROAD,"NEWCASTLE UPON TYNE, NE2 1AR",0191 232 4955
LOOKERS NEWCASTLE,6 BENFIELD ROAD,"NEWCASTLE UPON TYNE, NE6 5XA",0330 042 3320
PLATINUM,LOWER BRISTOL ROAD,"BATH, BA2 3DN",01225 485400
ARNOLD CLARK AUTOMOBILES LTD,FRANCHISE DEVELOPMENT DEPARTMENT,"GLASGOW, G64 1RP",0141 762 3004
STONEACRE BLACKBURN,QUARRY STREET,"BLACKBURN, BB1 5DE",01254 685190
RENAULT CANNOCK,EASTERN WAY,"CANNOCK, WS118XR",01543 602816
BRISTOL STREET BRADFORD,113 THORNTON ROAD,"BRADFORD, BD1 2EP",01274 931886
JOHN BANKS LTD,13 SWANNS ROAD,"CAMBRIDGE, CB5 8JZ",01223 351616
PARK'S,"UNIT 3, HALBEATH INTERCHANGE","DUNFERMLINE, KY11 7EG",01383 556 100
ARNOLD CLARK AUTOMOBILES LTD,361 ANNAN ROAD,"DUMFRIES, DG1 3JR",01387 261437
RIGHT CAR HULL,CLOUGH ROAD,"HULL, HU6 7PL",01482 343420
ARNOLD CLARK AUTOMOBILES LTD,2-6 RANNOCH DRIVE,"GLASGOW, G61 2JP",0141 942 5824
W.D. SEMPLE,SHORE STREET,"INVERARAY, PA32 8UF",01499 302150
HENDY BRIGHTON,CARDEN AVENUE,"BRIGHTON, BN1 8AF",01273 274444
HENDY POOLE,573 WALLISDOWN ROAD,"POOLE, BH12 5BA",01202 635000
RMB AUTOMOTIVE LTD,BARRINGTON WAY,"DARLINGTON, DL1 4WF",01325 525777
UNIVERSAL GARAGE (WHITBY) LIMITED,UNIT 7B ENTERPRISE WAY,"WHITBY, YO22 4NH",01947 602093
DEVCO M.V.S LTD,KENNEDY WAY,"TIVERTON, EX16 6RZ",01884 254318
HARTS OF HONITON,NORTHCOTE HILL,"HONITON, EX14 9UP",01404 540929
HENDY EASTLEIGH,MANOR WAY,"EASTLEIGH, SO50 9PT",02380 271271
WESSEX GARAGES,SEVEN STILES AVENUE,"NEWPORT, NP19 4QR",01633 636140
ARNOLD CLARK AUTOMOBILES LTD,454 HILLINGTON ROAD,"GLASGOW, G52 4FH",0141 810 2600
BROWNING (MELTON MOWBRAY) LTD,43 NORMAN WAY,"MELTON MOWBRAY, LE131JE",01664 560266
HENDY SALISBURY,BRUNEL ROAD,"SALISBURY, SP2 7PU",01722 412111
W R DAVIES,CONWY ROAD,"LLANDUDNO JUNCTION, LL319BA",01492 593444
RENAULT MANCHESTER,TRINITY WAY,"SALFORD, M3 7FT",0161 717 0091
ROXBY GARAGE LIMITED,THE CLOCK TOWER,"SOUTHAMPTON, SO31 9GQ",01489 572366
ARNOLD CLARK AUTOMOBILES LTD,DELPHWOOD DRIVE,"ST HELENS, WA9 5JE",01744 457000
EVANS HALSHAW,WHITE ROSE WAY,"DONCASTER, DN4 5JH",01302 363311
ARNOLD CLARK AUTOMOBILES LTD,HARBOUR ROAD,"INVERNESS, IV1 1LN",01463 222848
ARNOLD CLARK AUTOMOBILES LTD,GEMINI RETAIL PARK,"WARRINGTON, WA5 7TY",01925 575885
ARNOLD CLARK AUTOMOBILES LTD,2 LINKWOOD PLACE,"ELGIN, IV30 1HZ",01343 548383
ARNOLD CLARK AUTOMOBILES LTD,KERSE ROAD,"STIRLING, FK7 7RU",01786 472212
SUTTON PARK MOTOR COMPANY LIMITED,GAGARIN,"TAMWORTH, B79 7TP",01827 305080
ARNOLD CLARK AUTOMOBILES LTD,KINGSWAY EAST,"DUNDEE, DD4 7HG",01382 461199
ARNOLD CLARK AUTOMOBILES LTD,149 KILBIRNIE STREET,"GLASGOW, G5 8HX",0141 271 7440
ARNOLD CLARK AUTOMOBILES LTD,64 KIRKINTILLOCH ROAD,"GLASGOW, G64 2AH",0141 772 6481
MACKIE MOTORS (BRECHIN) LTD,46-48 CLERK STREET,"BRECHIN, DD9 6AY",01356 624511
PARK'S,228 HAMILTON ROAD,"MOTHERWELL, ML1 3DT",01698 264 162
ARNOLD CLARK AUTOMOBILES LTD,BEANCROSS ROAD,"GRANGEMOUTH, FK3 8YL",01324 495555
CHARLES HURST,547 ANTRIM ROAD,"NEWTOWNABBEY, BT36 4RF",0844 649 0848
CITY MOTORS,CASTLE COURT,"BRISTOL, BS4 3AX",0117 972 3030
ARNOLD CLARK AUTOMOBILES LTD,172 DUNKELD ROAD,"PERTH, PH1 3XJ",01738 620877
PARK'S,HIGH ROAD,"AYR, KA8 0LL",01292 613000
MARTINS,LONDON ROAD,"BASINGSTOKE, RG24 7NZ",01256 867000
S.M.C.,168-170 OATLANDS DRIVE,"WEYBRIDGE, KT13 9ET",01932 855021
S.M.C.,WYCH HILL,"WOKING, GU22 0EU",01483 720322
ARNOLD CLARK AUTOMOBILES LTD,FRANCHISE DEVELOPMENT DEPARTMENT,"GLASGOW, G64 1RP",0141 762 3004
ARNOLD CLARK AUTOMOBILES LTD,361 ANNAN ROAD,"DUMFRIES, DG1 3JR",01387 261437
ARNOLD CLARK AUTOMOBILES LTD,2-6 RANNOCH DRIVE,"GLASGOW, G61 2JP",0141 942 5824
BAGOT ROAD GARAGE LTD,BAGOT ROAD,"JERSEY, JE1 1BP",01534 815120
PV DOBSON AND SONS,BRIDGE END GARAGE,"KENDAL, LA8 8EL",01539 552441
KENT AUTO PANELS LIMITED,SHORNCLIFFE MOTOR PARK,"FOLKESTONE, CT20 3UJ",01303 249656
JCB CANTERBURY,VAUXHALL ROAD,"CANTERBURY, CT1 1HE",
SUTTON PARK MOTOR COMPANY LIMITED,99 NORTON ROAD,"STOURBRIDGE, DY8 2TB",01384 396655
FREELANCE (CI) LTD,BRAYE ROAD,"GUERNSEY, GY3 5PA",01481 242190
LOOKERS CHESTER,SEALAND ROAD,"CHESTER, CH1 4LQ",0330 019 8923
PENTAGON LINCOLN,OUTER CIRCLE ROAD,"LINCOLN, LN2 4LD",01522 525060
EDWIN MAY LTD,1 RIVERSIDE PARK SOUTH,"COLERAINE, BT51 3RT",028 7035 4321
EVANS HALSHAW,WESSINGTON WAY,"SUNDERLAND, SR5 3NX",0191 516 5300
BRISTOL STREET GLOUCESTER,3 RAMSDALE ROAD,"GLOUCESTER, GL2 5FE",01452 640700
LOOKERS CARLISLE,ROSEHILL ESTATE,"CARLISLE, CA1 2UR",0330 042 2819
WJ KING GROUP,171 THE BRENT,"DARTFORD, DA2 6DQ",01322 222171
WJ KING GROUP,573-579 PRINCES ROAD,"DARTFORD, DA2 6DZ",
SUTTON PARK MOTOR COMPANY LIMITED,ATHENA DRIVE,"WARWICK, CV34 6UL",01926 438800
H TONES & SONS LIMITED,BRENDA ROAD,"HARTLEPOOL, TS25 1PE",01429 221619
CARS2 BARNSLEY,PONTEFRACT ROAD,"BARNSLEY, S71 1AJ",01226 229211
RMB AUTOMOTIVE LTD,THURSTON ROAD,"NORTHALLERTON, DL6 2NA",01609 766690
ARNOLD CLARK AUTOMOBILES LTD,SCOT LANE,"WIGAN, WN5 0PS",01942 225565
RENAULT WOLVERHAMPTON BATTERY WORKSHOP,2-24 BILSTON ROAD,"WOLVERHAMPTON, WV2 2PT",01902 439500
EVANS HALSHAW,610 PENISTONE ROAD,"SHEFFIELD, S6 2FZ",0114 251 5100
MARTINS,COLEBROOK WAY,"ANDOVER, SP10 3BB",01264 355200
EAST BILNEY GARAGE LTD,FAKENHAM ROAD,"DEREHAM, NR204HL",01362 860511
ROGATE SERVICES LTD,EAST STREET,"PETERSFIELD, GU315EA",01730 821816
AUTOXP LIMITED,UNIT 3 EPS INDUSTRIAL ESTATE,"CHIPPING WARDEN, OX11 1LL",01494 471871
HOLDCROFT,LEEK ROAD,"STOKE ON TRENT, ST1 6AT",01782 214371
SHELBOURNE MOTORS,334 TANDRAGEE ROAD,"CRAIGAVON, BT62 3RB",028 3839 6808
PARK'S,CORSEHILL MOUNT ROAD,"IRVINE, KA114JZ",01294 221166
MOTOR MALL,EDEN BUSINESS PARK,"ISLE OF MAN, IM4 2AZ",01624 611200
PICADOR,512 PORTSMOUTH ROAD,"SOUTHAMPTON, SO19 9LZ",02380 425200
ARNOLD CLARK AUTOMOBILES LTD,DELPHWOOD DRIVE,"ST HELENS, WA9 5JE",01744 457000
EVANS HALSHAW,WHITE ROSE WAY,"DONCASTER, DN4 5JH",01302 363311
ARNOLD CLARK AUTOMOBILES LTD,HARBOUR ROAD,"INVERNESS, IV1 1LN",01463 222848
ARNOLD CLARK AUTOMOBILES LTD,GEMINI RETAIL PARK,"WARRINGTON, WA5 7TY",01925 575885
ARNOLD CLARK AUTOMOBILES LTD,2 LINKWOOD PLACE,"ELGIN, IV30 1HZ",01343 548383
ARNOLD CLARK AUTOMOBILES LTD,KERSE ROAD,"STIRLING, FK7 7RU",01786 472212
SUTTON PARK MOTOR COMPANY LIMITED,GAGARIN,"TAMWORTH, B79 7TP",01827 305080
ARNOLD CLARK AUTOMOBILES LTD,KINGSWAY EAST,"DUNDEE, DD4 7HG",01382 461199
ARNOLD CLARK AUTOMOBILES LTD,149 KILBIRNIE STREET,"GLASGOW, G5 8HX",0141 271 7440
ARNOLD CLARK AUTOMOBILES LTD,64 KIRKINTILLOCH ROAD,"GLASGOW, G64 2AH",0141 772 6481
MACKIE MOTORS (BRECHIN) LTD,46-48 CLERK STREET,"BRECHIN, DD9 6AY",01356 624511
PARK'S,228 HAMILTON ROAD,"MOTHERWELL, ML1 3DT",01698 264 162
ARNOLD CLARK AUTOMOBILES LTD,BEANCROSS ROAD,"GRANGEMOUTH, FK3 8YL",01324 495555
CHARLES HURST,547 ANTRIM ROAD,"NEWTOWNABBEY, BT36 4RF",0844 649 0848
CITY MOTORS,CASTLE COURT,"BRISTOL, BS4 3AX",0117 972 3030
ARNOLD CLARK AUTOMOBILES LTD,172 DUNKELD ROAD,"PERTH, PH1 3XJ",01738 620877
PARK'S,HIGH ROAD,"AYR, KA8 0LL",01292 613000
MARTINS,LONDON ROAD,"BASINGSTOKE, RG24 7NZ",01256 867000
S.M.C.,168-170 OATLANDS DRIVE,"WEYBRIDGE, KT13 9ET",01932 855021
S.M.C.,WYCH HILL,"WOKING, GU22 0EU",01483 720322
ARNOLD CLARK AUTOMOBILES LTD,FRANCHISE DEVELOPMENT DEPARTMENT,"GLASGOW, G64 1RP",0141 762 3004
ARNOLD CLARK AUTOMOBILES LTD,361 ANNAN ROAD,"DUMFRIES, DG1 3JR",01387 261437
ARNOLD CLARK AUTOMOBILES LTD,2-6 RANNOCH DRIVE,"GLASGOW, G61 2JP",0141 942 5824
SUTTON PARK MOTOR COMPANY LIMITED,99 NORTON ROAD,"STOURBRIDGE, DY8 2TB",01384 396655
EVANS HALSHAW,WESSINGTON WAY,"SUNDERLAND, SR5 3NX",0191 516 5300
WJ KING GROUP,171 THE BRENT,"DARTFORD, DA2 6DQ",01322 222171
EVANS HALSHAW SHEFFIELD - VAN SERVICE,7 ORGREAVE DRIVE,"SHEFFIELD, S13 9NR",01142 939200
JOHN POCKLINGTON LIMITED,NORTH HOLME ROAD,"LOUTH, LN11 0HS",01507 608080
T.C. AUTOS,52 KILLYCLOGHER ROAD,"OMAGH, BT797LP",028 8224 3451
WIMBLEDON ACCIDENT & REPAIR CENTRE,52 - 56 WEIR ROAD,"LONDON, SW19 8UG",020 8944 6660
TATES OF PORTSLADE,138 TRAFALGAR ROAD,"BRIGHTON, BN411GS",01273 275555
CLOCK GARAGE (CHORLEY) LTD,LYONS LANE,"CHORLEY, PR7 3BH",01257 268484
MANCHETTS NEWMARKET,UNIT 1 VICTORIA WAY,"NEWMARKET, CB8 7SH",01638 674490
WYLAM GARAGE LTD,1 BURN LANE,"HEXHAM, NE463HN",01434 602800
DALES CENTRAL MOTORS LTD,CHAPEL TOWN BUSINESS PARK,"NEWQUAY, TR8 5YA",01872 510888
GLYN HOPKIN COLCHESTER,WIMPOLE ROAD,"COLCHESTER, CO1 2GN",01206 603560
QUICKCO,BAILEYFIELD ROAD,"EDINBURGH, EH15 1BT",0131 669 6261
DALES CENTRAL MOTORS LTD,WHEAL ROSE,"REDRUTH, TR16 5BX",01209 821133
EVANS HALSHAW,1 BANKHEAD AVENUE,"EDINBURGH, EH11 4AA",0131 450 5300
BELLS OF CROSSGAR,1 DOWNPATRICK ROAD,"DOWNPATRICK, BT30 9EQ",02844 833233
ARNOLD CLARK AUTOMOBILES LTD,649 LEEDS ROAD,"HUDDERSFIELD, HD2 1YS",01484 412000
RENAULT LONDON WEST - VAN CENTRE,WESTERN AVENUE,"LONDON, W3 0RZ",
HOLDEN,HOLDEN GROUP BODY CENTRE,"NORWICH, NR3 2BH",01603 403822
"FISH BROTHERS, SWINDON",SWINDON BODY CENTRE,"SWINDON, SN2 6DU",01793 619578
